[{"OBJECT_NAME":"STARLINK-34466","OBJECT_ID":"2025-244W","EPOCH":"2026-03-09T17:07:08.248224","MEAN_MOTION":15.30205375,"ECCENTRICITY":0.00010687,"INCLINATION":53.1596,"RA_OF_ASC_NODE":229.7611,"ARG_OF_PERICENTER":89.8415,"MEAN_ANOMALY":270.2708,"EPHEMERIS_TYPE":0,"CLASSIFICATION_TYPE":"U","NORAD_CAT_ID":66226,"ELEMENT_SET_NO":999,"REV_AT_EPOCH":2166,"BSTAR":0.00055805774,"MEAN_MOTION_DOT":0.00016208,"MEAN_MOTION_DDOT":0},{"OBJECT_NAME":"IUS R\/B(1)","OBJECT_ID":"1983-026D","EPOCH":"2026-03-09T12:36:50.632128","MEAN_MOTION":4.18543997,"ECCENTRICITY":0.58894248,"INCLINATION":26.004,"RA_OF_ASC_NODE":285.166,"ARG_OF_PERICENTER":300.6543,"MEAN_ANOMALY":14.2493,"EPHEMERIS_TYPE":0,"CLASSIFICATION_TYPE":"U","NORAD_CAT_ID":13971,"ELEMENT_SET_NO":999,"REV_AT_EPOCH":50331,"BSTAR":0.00061486338,"MEAN_MOTION_DOT":2.018e-5,"MEAN_MOTION_DDOT":0}]
